 Automated mail xmit by MAIL_REQUEST, PID=   10657 Mon May  3 02:44:48 2010
++++++++++++++++++++++++++++++++ (part 1 of 1)  +++++++++++++++++++++++++++++++

 
 
*******************************************************************************
Ephemeris / MAIL_REQUEST Mon May  3 02:44:47 2010  Pasadena, USA / Horizons    
*******************************************************************************
Target body name: Saturn Barycenter (6)           {source: DE405}
Center body name: Solar System Barycenter (0)     {source: DE405}
Center-site name: BODY CENTER
*******************************************************************************
Start time      : A.D. 2010-Jan-01 00:00:00.0000 CT 
Stop  time      : A.D. 2010-Feb-01 00:00:00.0000 CT 
Step-size       : 45 minutes
*******************************************************************************
Center geodetic : 0.00000000,0.00000000,0.0000000 {E-lon(deg),Lat(deg),Alt(km)}
Center cylindric: 0.00000000,0.00000000,0.0000000 {E-lon(deg),Dxy(km),Dz(km)}
Center radii    : (undefined)                                                  
Output units    : KM-S                                                         
Output format   : 02
Reference frame : ICRF/J2000.0                                                 
Output type     : GEOMETRIC cartesian states
Coordinate systm: Earth Mean Equator and Equinox of Reference Epoch            
*******************************************************************************
JDCT 
   X     Y     Z
   VX    VY    VZ
*******************************************************************************
$$SOE
2455214.156250000 = A.D. 2010-Jan-17 15:45:00.0000 (CT)
  -1.417452123864982E+09  8.672500998012722E+05  6.137641623690464E+07
  -6.882610356278702E-01 -8.958176014597605E+00 -3.670467832263091E+00
2455214.187500000 = A.D. 2010-Jan-17 16:30:00.0000 (CT)
  -1.417453981929390E+09  8.430630244685058E+05  6.136650596336858E+07
  -6.880829701331768E-01 -8.958176083241074E+00 -3.670475527577481E+00
2455214.218750000 = A.D. 2010-Jan-17 17:15:00.0000 (CT)
  -1.417455839513021E+09  8.188759489545040E+05  6.135659566905687E+07
  -6.879049049369264E-01 -8.958176148846954E+00 -3.670483221624437E+00
2455214.250000000 = A.D. 2010-Jan-17 18:00:00.0000 (CT)
  -1.417457696615877E+09  7.946888732674662E+05  6.134668535397294E+07
  -6.877268400391796E-01 -8.958176211415262E+00 -3.670490914403963E+00
2455214.281250000 = A.D. 2010-Jan-17 18:45:00.0000 (CT)
  -1.417459553237958E+09  7.705017974155955E+05  6.133677501812023E+07
  -6.875487754399965E-01 -8.958176270946016E+00 -3.670498605916065E+00
2455214.312500000 = A.D. 2010-Jan-17 19:30:00.0000 (CT)
  -1.417461409379264E+09  7.463147214070931E+05  6.132686466150214E+07
  -6.873707111394374E-01 -8.958176327439235E+00 -3.670506296160746E+00
2455214.343750000 = A.D. 2010-Jan-17 20:15:00.0000 (CT)
  -1.417463265039798E+09  7.221276452501565E+05  6.131695428412210E+07
  -6.871926471375625E-01 -8.958176380894932E+00 -3.670513985138013E+00
2455214.375000000 = A.D. 2010-Jan-17 21:00:00.0000 (CT)
  -1.417465120219559E+09  6.979405689529926E+05  6.130704388598353E+07
  -6.870145834344320E-01 -8.958176431313133E+00 -3.670521672847872E+00
2455214.406250000 = A.D. 2010-Jan-17 21:45:00.0000 (CT)
  -1.417466974918549E+09  6.737534925238006E+05  6.129713346708986E+07
  -6.868365200301063E-01 -8.958176478693851E+00 -3.670529359290324E+00
2455214.437500000 = A.D. 2010-Jan-17 22:30:00.0000 (CT)
  -1.417468829136768E+09  6.495664159707800E+05  6.128722302744450E+07
  -6.866584569246458E-01 -8.958176523037105E+00 -3.670537044465376E+00
2455214.468750000 = A.D. 2010-Jan-17 23:15:00.0000 (CT)
  -1.417470682874217E+09  6.253793393021338E+05  6.127731256705089E+07
  -6.864803941181103E-01 -8.958176564342915E+00 -3.670544728373033E+00
2455214.500000000 = A.D. 2010-Jan-18 00:00:00.0000 (CT)
  -1.417472536130896E+09  6.011922625260614E+05  6.126740208591244E+07
  -6.863023316105604E-01 -8.958176602611298E+00 -3.670552411013301E+00
2455214.531250000 = A.D. 2010-Jan-18 00:45:00.0000 (CT)
  -1.417474388906807E+09  5.770051856507659E+05  6.125749158403256E+07
  -6.861242694020563E-01 -8.958176637842270E+00 -3.670560092386183E+00
2455214.562500000 = A.D. 2010-Jan-18 01:30:00.0000 (CT)
  -1.417476241201951E+09  5.528181086844467E+05  6.124758106141469E+07
  -6.859462074926581E-01 -8.958176670035852E+00 -3.670567772491684E+00
2455214.593750000 = A.D. 2010-Jan-18 02:15:00.0000 (CT)
  -1.417478093016328E+09  5.286310316353049E+05  6.123767051806224E+07
  -6.857681458824263E-01 -8.958176699192064E+00 -3.670575451329811E+00
2455214.625000000 = A.D. 2010-Jan-18 03:00:00.0000 (CT)
  -1.417479944349939E+09  5.044439545115437E+05  6.122775995397865E+07
  -6.855900845714210E-01 -8.958176725310917E+00 -3.670583128900566E+00
2455214.656250000 = A.D. 2010-Jan-18 03:45:00.0000 (CT)
  -1.417481795202785E+09  4.802568773213606E+05  6.121784936916732E+07
  -6.854120235597023E-01 -8.958176748392438E+00 -3.670590805203956E+00
2455214.687500000 = A.D. 2010-Jan-18 04:30:00.0000 (CT)
  -1.417483645574867E+09  4.560698000729587E+05  6.120793876363169E+07
  -6.852339628473307E-01 -8.958176768436639E+00 -3.670598480239985E+00
2455214.718750000 = A.D. 2010-Jan-18 05:15:00.0000 (CT)
  -1.417485495466185E+09  4.318827227745373E+05  6.119802813737517E+07
  -6.850559024343663E-01 -8.958176785443541E+00 -3.670606154008659E+00
2455214.750000000 = A.D. 2010-Jan-18 06:00:00.0000 (CT)
  -1.417487344876740E+09  4.076956454342976E+05  6.118811749040118E+07
  -6.848778423208695E-01 -8.958176799413163E+00 -3.670613826509981E+00
2455214.781250000 = A.D. 2010-Jan-18 06:45:00.0000 (CT)
  -1.417489193806534E+09  3.835085680604372E+05  6.117820682271315E+07
  -6.846997825069003E-01 -8.958176810345520E+00 -3.670621497743957E+00
2455214.812500000 = A.D. 2010-Jan-18 07:30:00.0000 (CT)
  -1.417491042255566E+09  3.593214906611647E+05  6.116829613431451E+07
  -6.845217229925191E-01 -8.958176818240631E+00 -3.670629167710593E+00
2455214.843750000 = A.D. 2010-Jan-18 08:15:00.0000 (CT)
  -1.417492890223838E+09  3.351344132446721E+05  6.115838542520866E+07
  -6.843436637777862E-01 -8.958176823098515E+00 -3.670636836409893E+00
2455214.875000000 = A.D. 2010-Jan-18 09:00:00.0000 (CT)
  -1.417494737711351E+09  3.109473358191662E+05  6.114847469539903E+07
  -6.841656048627617E-01 -8.958176824919191E+00 -3.670644503841862E+00
2455214.906250000 = A.D. 2010-Jan-18 09:45:00.0000 (CT)
  -1.417496584718105E+09  2.867602583928425E+05  6.113856394488905E+07
  -6.839875462475060E-01 -8.958176823702678E+00 -3.670652170006504E+00
2455214.937500000 = A.D. 2010-Jan-18 10:30:00.0000 (CT)
  -1.417498431244101E+09  2.625731809739042E+05  6.112865317368214E+07
  -6.838094879320792E-01 -8.958176819448989E+00 -3.670659834903824E+00
2455214.968750000 = A.D. 2010-Jan-18 11:15:00.0000 (CT)
  -1.417500277289340E+09  2.383861035705525E+05  6.111874238178171E+07
  -6.836314299165416E-01 -8.958176812158149E+00 -3.670667498533829E+00
2455215.000000000 = A.D. 2010-Jan-18 12:00:00.0000 (CT)
  -1.417502122853822E+09  2.141990261909850E+05  6.110883156919120E+07
  -6.834533722009536E-01 -8.958176801830168E+00 -3.670675160896522E+00
2455215.031250000 = A.D. 2010-Jan-18 12:45:00.0000 (CT)
  -1.417503967937550E+09  1.900119488434028E+05  6.109892073591401E+07
  -6.832753147853751E-01 -8.958176788465074E+00 -3.670682821991908E+00
2455215.062500000 = A.D. 2010-Jan-18 13:30:00.0000 (CT)
  -1.417505812540523E+09  1.658248715360053E+05  6.108900988195358E+07
  -6.830972576698665E-01 -8.958176772062879E+00 -3.670690481819992E+00
2455215.093750000 = A.D. 2010-Jan-18 14:15:00.0000 (CT)
  -1.417507656662741E+09  1.416377942769956E+05  6.107909900731333E+07
  -6.829192008544881E-01 -8.958176752623601E+00 -3.670698140380780E+00
2455215.125000000 = A.D. 2010-Jan-18 15:00:00.0000 (CT)
  -1.417509500304208E+09  1.174507170745730E+05  6.106918811199667E+07
  -6.827411443392999E-01 -8.958176730147260E+00 -3.670705797674276E+00
2455215.156250000 = A.D. 2010-Jan-18 15:45:00.0000 (CT)
  -1.417511343464921E+09  9.326363993693516E+04  6.105927719600702E+07
  -6.825630881243625E-01 -8.958176704633875E+00 -3.670713453700485E+00
2455215.187500000 = A.D. 2010-Jan-18 16:30:00.0000 (CT)
  -1.417513186144884E+09  6.907656287228130E+04  6.104936625934783E+07
  -6.823850322097360E-01 -8.958176676083463E+00 -3.670721108459412E+00
2455215.218750000 = A.D. 2010-Jan-18 17:15:00.0000 (CT)
  -1.417515028344095E+09  4.488948588881828E+04  6.103945530202248E+07
  -6.822069765954806E-01 -8.958176644496042E+00 -3.670728761951062E+00
2455215.250000000 = A.D. 2010-Jan-18 18:00:00.0000 (CT)
  -1.417516870062557E+09  2.070240899473801E+04  6.102954432403442E+07
  -6.820289212816565E-01 -8.958176609871629E+00 -3.670736414175440E+00
2455215.281250000 = A.D. 2010-Jan-18 18:45:00.0000 (CT)
  -1.417518711300271E+09 -3.484667801758274E+03  6.101963332538708E+07
  -6.818508662683239E-01 -8.958176572210247E+00 -3.670744065132550E+00
2455215.312500000 = A.D. 2010-Jan-18 19:30:00.0000 (CT)
  -1.417520552057236E+09 -2.767174449246377E+04  6.100972230608385E+07
  -6.816728115555430E-01 -8.958176531511908E+00 -3.670751714822399E+00
2455215.343750000 = A.D. 2010-Jan-18 20:15:00.0000 (CT)
  -1.417522392333453E+09 -5.185882106918655E+04  6.099981126612817E+07
  -6.814947571433743E-01 -8.958176487776633E+00 -3.670759363244990E+00
2455215.375000000 = A.D. 2010-Jan-18 21:00:00.0000 (CT)
  -1.417524232128924E+09 -7.604589752372541E+04  6.098990020552347E+07
  -6.813167030318777E-01 -8.958176441004444E+00 -3.670767010400328E+00
2455215.406250000 = A.D. 2010-Jan-18 21:45:00.0000 (CT)
  -1.417526071443650E+09 -1.002329738478772E+05  6.097998912427315E+07
  -6.811386492211138E-01 -8.958176391195352E+00 -3.670774656288420E+00
